{
    "links": {
        "self": "http://www.neowsapp.com/rest/v1/neo/3786450?api_key=iIulBulltgU6a56xZRHN4H3l9WmuAYTsLGpBGhQ2"
    },
    "id": "3786450",
    "neo_reference_id": "3786450",
    "name": "(2017 TL6)",
    "designation": "2017 TL6",
    "nasa_jpl_url": "http://ssd.jpl.nasa.gov/sbdb.cgi?sstr=3786450",
    "absolute_magnitude_h": 25.9,
    "estimated_diameter": {
        "kilometers": {
            "estimated_diameter_min": 0.0175612318,
            "estimated_diameter_max": 0.0392681082
        },
        "meters": {
            "estimated_diameter_min": 17.561231848,
            "estimated_diameter_max": 39.2681081809
        },
        "miles": {
            "estimated_diameter_min": 0.0109120402,
            "estimated_diameter_max": 0.0244000636
        },
        "feet": {
            "estimated_diameter_min": 57.6155918963,
            "estimated_diameter_max": 128.8323800441
        }
    },
    "is_potentially_hazardous_asteroid": false,
    "close_approach_data": [
        {
            "close_approach_date": "2009-10-20",
            "close_approach_date_full": "2009-Oct-20 17:36",
            "epoch_date_close_approach": 1256060160000,
            "relative_velocity": {
                "kilometers_per_second": "8.5543242858",
                "kilometers_per_hour": "30795.5674290523",
                "miles_per_hour": "19135.1679950131"
            },
            "miss_distance": {
                "astronomical": "0.0739816644",
                "lunar": "28.7788674516",
                "kilometers": "11067499.413294828",
                "miles": "6877025.2435235064"
            },
            "orbiting_body": "Earth"
        },
        {
            "close_approach_date": "2017-10-21",
            "close_approach_date_full": "2017-Oct-21 10:13",
            "epoch_date_close_approach": 1508580780000,
            "relative_velocity": {
                "kilometers_per_second": "8.938038068",
                "kilometers_per_hour": "32176.9370446447",
                "miles_per_hour": "19993.4973542127"
            },
            "miss_distance": {
                "astronomical": "0.066123374",
                "lunar": "25.721992486",
                "kilometers": "9891915.90761338",
                "miles": "6146551.525609444"
            },
            "orbiting_body": "Earth"
        },
        {
            "close_approach_date": "2018-04-15",
            "close_approach_date_full": "2018-Apr-15 07:24",
            "epoch_date_close_approach": 1523777040000,
            "relative_velocity": {
                "kilometers_per_second": "8.0344546354",
                "kilometers_per_hour": "28924.0366874605",
                "miles_per_hour": "17972.271573939"
            },
            "miss_distance": {
                "astronomical": "0.1990756018",
                "lunar": "77.4404091002",
                "kilometers": "29781285.998248166",
                "miles": "18505233.0202540508"
            },
            "orbiting_body": "Earth"
        },
        {
            "close_approach_date": "2025-10-21",
            "close_approach_date_full": "2025-Oct-21 17:49",
            "epoch_date_close_approach": 1761068940000,
            "relative_velocity": {
                "kilometers_per_second": "9.7346217359",
                "kilometers_per_hour": "35044.6382493805",
                "miles_per_hour": "21775.375361122"
            },
            "miss_distance": {
                "astronomical": "0.089715504",
                "lunar": "34.899331056",
                "kilometers": "13421248.30437648",
                "miles": "8339576.985016224"
            },
            "orbiting_body": "Earth"
        },
        {
            "close_approach_date": "2075-04-07",
            "close_approach_date_full": "2075-Apr-07 11:53",
            "epoch_date_close_approach": 3321863580000,
            "relative_velocity": {
                "kilometers_per_second": "9.0312268598",
                "kilometers_per_hour": "32512.4166953028",
                "miles_per_hour": "20201.9513627008"
            },
            "miss_distance": {
                "astronomical": "0.0554534441",
                "lunar": "21.5713897549",
                "kilometers": "8295717.121524067",
                "miles": "5154719.5917914446"
            },
            "orbiting_body": "Earth"
        }
    ],
    "orbital_data": {
        "orbit_id": "2",
        "orbit_determination_date": "2017-10-20 06:22:22",
        "first_observation_date": "2017-10-15",
        "last_observation_date": "2017-10-20",
        "data_arc_in_days": 5,
        "observations_used": 23,
        "orbit_uncertainty": "8",
        "minimum_orbit_intersection": ".0540839",
        "jupiter_tisserand_invariant": "5.635",
        "epoch_osculation": "2458042.5",
        "eccentricity": ".1500868073181155",
        "semi_major_axis": "1.092497845368344",
        "inclination": "15.62909047576781",
        "ascending_node_longitude": "201.8980228590497",
        "orbital_period": "417.0895515722787",
        "perihelion_distance": ".9285283317550892",
        "perihelion_argument": "271.2983356383973",
        "aphelion_distance": "1.256467358981599",
        "perihelion_time": "2458126.524497224320",
        "mean_anomaly": "287.4764402830808",
        "mean_motion": ".8631239949380859",
        "equinox": "J2000",
        "orbit_class": {
            "orbit_class_type": "APO",
            "orbit_class_description": "Near-Earth asteroid orbits which cross the Earth’s orbit similar to that of 1862 Apollo",
            "orbit_class_range": "a (semi-major axis) > 1.0 AU; q (perihelion) < 1.017 AU"
        }
    },
    "is_sentry_object": false
}